*******************************************************************************
Ephemeris / WWW_USER Fri Mar  7 10:32:11 2025 Pasadena, USA      / Horizons    
*******************************************************************************
Target body name: (2018 RY7)                      {source: JPL#20}
Center body name: Earth (399)                     {source: DE441}
Center-site name: Mauna Kea
*******************************************************************************
Start time      : A.D. 2018-Aug-28 04:50:00.0000 UT      
Stop  time      : A.D. 2018-Aug-28 15:56:00.0000 UT      
Step-size       : 1 minutes
*******************************************************************************
Target pole/equ : undefined
Target radii    : undefined                                                    
Center geodetic : 204.5278, 19.8260847, 4.21024   {E-lon(deg),Lat(deg),Alt(km)}
Center cylindric: 204.5278, 6006.35451, 2151.0229 {E-lon(deg),Dxy(km),Dz(km)}
Center pole/equ : ITRF93                          {East-longitude positive}
Center radii    : 6378.137, 6378.137, 6356.752 km {Equator_a, b, pole_c}       
Target primary  : Sun
Vis. interferer : MOON (R_eq= 1737.400) km        {source: DE441}
Rel. light bend : Sun                             {source: DE441}
Rel. lght bnd GM: 1.3271E+11 km^3/s^2                                          
Small-body perts: Yes                             {source: SB441-N16}
Atmos refraction: NO (AIRLESS)
RA format       : HMS
Time format     : CAL 
Calendar mode   : Mixed Julian/Gregorian
RTS-only print  : NO       
EOP file        : eop.250306.p250602                                           
EOP coverage    : DATA-BASED 1962-JAN-20 TO 2025-MAR-06. PREDICTS-> 2025-JUN-01
Units conversion: 1 au= 149597870.700 km, c= 299792.458 km/s, 1 day= 86400.0 s 
Table cut-offs 1: Elevation (-90.0deg=NO ),Airmass (>38.000=NO), Daylight (YES)
Table cut-offs 2: Solar elongation (  0.0,180.0=NO ),Local Hour Angle( 0.0=NO )
Table cut-offs 3: RA/DEC angular rate (     0.0=NO )                           
*******************************************************************************
Initial IAU76/J2000 heliocentric ecliptic osculating elements (au, days, deg.):
  EPOCH=  2458422.5 ! 2018-Oct-31.00 (TDB)         Residual RMS= .22459        
   EC= .1470549687381346   QR= .8667733479166969   TP= 2458516.8896767548      
   OM= 2.838668085760325   W=  136.9006026425241   IN= 13.35135890147074       
  Equivalent ICRF heliocentric cartesian coordinates (au, au/d):
   X= 8.791791513870114E-01  Y= 4.508422091141234E-01  Z= 3.244113040133835E-01
  VX=-1.085418916943652E-02 VY= 1.006005810562689E-02 VZ= 7.673980932675997E-03
Asteroid physical parameters (km, seconds, rotational period in hours):        
   GM= n.a.                RAD= n.a.               ROTPER= n.a.                
   H= 24.4                 G= .150                 B-V= n.a.                   
                           ALBEDO= n.a.            STYP= n.a.                  
*******************************************************************************
 Date__(UT)__HR:MN     R.A._________(ICRF)_________DEC
******************************************************
$$SOE
 2018-Aug-28 15:05 Am  01 58 52.887945 -17 49 51.16614
 2018-Aug-28 15:06 Am  01 58 52.836253 -17 49 50.41938
 2018-Aug-28 15:07 Am  01 58 52.784573 -17 49 49.67238
 2018-Aug-28 15:08 Am  01 58 52.732905 -17 49 48.92513
 2018-Aug-28 15:09 Am  01 58 52.681251 -17 49 48.17765
 2018-Aug-28 15:10 Am  01 58 52.629609 -17 49 47.42992
 2018-Aug-28 15:11 Am  01 58 52.577981 -17 49 46.68195
 2018-Aug-28 15:12 Am  01 58 52.526366 -17 49 45.93374
 2018-Aug-28 15:13 Am  01 58 52.474765 -17 49 45.18528
 2018-Aug-28 15:14 Am  01 58 52.423177 -17 49 44.43659
 2018-Aug-28 15:15 Am  01 58 52.371604 -17 49 43.68766
 2018-Aug-28 15:16 Am  01 58 52.320045 -17 49 42.93849
 2018-Aug-28 15:17 Nm  01 58 52.268501 -17 49 42.18908
 2018-Aug-28 15:18 Nm  01 58 52.216971 -17 49 41.43943
 2018-Aug-28 15:19 Nm  01 58 52.165457 -17 49 40.68954
 2018-Aug-28 15:20 Nm  01 58 52.113958 -17 49 39.93941
 2018-Aug-28 15:21 Nm  01 58 52.062474 -17 49 39.18905
 2018-Aug-28 15:22 Nm  01 58 52.011006 -17 49 38.43844
 2018-Aug-28 15:23 Nm  01 58 51.959553 -17 49 37.68761
 2018-Aug-28 15:24 Nm  01 58 51.908117 -17 49 36.93653
 2018-Aug-28 15:25 Nm  01 58 51.856697 -17 49 36.18522
 2018-Aug-28 15:26 Nm  01 58 51.805294 -17 49 35.43367
 2018-Aug-28 15:27 Nm  01 58 51.753907 -17 49 34.68189
 2018-Aug-28 15:28 Nm  01 58 51.702537 -17 49 33.92987
 2018-Aug-28 15:29 Nm  01 58 51.651184 -17 49 33.17761
 2018-Aug-28 15:30 Nm  01 58 51.599849 -17 49 32.42512
 2018-Aug-28 15:31 Nm  01 58 51.548531 -17 49 31.67240
 2018-Aug-28 15:32 Nm  01 58 51.497231 -17 49 30.91944
 2018-Aug-28 15:33 Nm  01 58 51.445950 -17 49 30.16626
 2018-Aug-28 15:34 Nm  01 58 51.394686 -17 49 29.41283
 2018-Aug-28 15:35 Nm  01 58 51.343441 -17 49 28.65918
 2018-Aug-28 15:36 Nm  01 58 51.292214 -17 49 27.90529
 2018-Aug-28 15:37 Nm  01 58 51.241006 -17 49 27.15117
 2018-Aug-28 15:38 Nm  01 58 51.189817 -17 49 26.39682
 2018-Aug-28 15:39 Nm  01 58 51.138648 -17 49 25.64224
 2018-Aug-28 15:40 Nm  01 58 51.087498 -17 49 24.88743
 2018-Aug-28 15:41 Nm  01 58 51.036368 -17 49 24.13239
 2018-Aug-28 15:42 Nm  01 58 50.985257 -17 49 23.37712
 2018-Aug-28 15:43 Nm  01 58 50.934167 -17 49 22.62163
 2018-Aug-28 15:44 Cm  01 58 50.883097 -17 49 21.86590
 2018-Aug-28 15:45 Cm  01 58 50.832047 -17 49 21.10995
 2018-Aug-28 15:46 Cm  01 58 50.781019 -17 49 20.35376
 2018-Aug-28 15:47 Cm  01 58 50.730011 -17 49 19.59735
 2018-Aug-28 15:48 Cm  01 58 50.679024 -17 49 18.84072
 2018-Aug-28 15:49 Cm  01 58 50.628059 -17 49 18.08385
 2018-Aug-28 15:50 Cm  01 58 50.577115 -17 49 17.32677
 2018-Aug-28 15:51 Cm  01 58 50.526193 -17 49 16.56945
 2018-Aug-28 15:52 Cm  01 58 50.475293 -17 49 15.81192
 2018-Aug-28 15:53 Cm  01 58 50.424415 -17 49 15.05415
 2018-Aug-28 15:54 Cm  01 58 50.373559 -17 49 14.29617
 2018-Aug-28 15:55 Cm  01 58 50.322726 -17 49 13.53796
 2018-Aug-28 15:56 Cm  01 58 50.271916 -17 49 12.77953
